25676,GLOBALSTAR M045,1999,117.35,-1.0,-,52.0,Inactive,0,LEO,Kazakhstan,Globalstar,Unknown,Unknown,Unknown,1 25676U 99019A   25164.60377464 -.00000117  00000+0 -21066-3 0  9997,2 25676  51.9987 315.4834 0000902 139.4916 300.6650 12.27062403192952,12.27062403,9.02e-05,LEO
25677,GLOBALSTAR M019,1999,118.63,-1.0,-,51.99,Inactive,0,LEO,Kazakhstan,Globalstar,Unknown,Unknown,Unknown,1 25677U 99019B   25164.50316213 -.00000192  00000+0 -10633-2 0  9992,2 25677  51.9885  85.8743 0001443 337.2153 193.5810 12.13876260184697,12.1387626,0.0001443,LEO
25678,GLOBALSTAR M044,1999,120.98,-1.0,-,52.0,Inactive,0,LEO,Kazakhstan,Globalstar,Unknown,Unknown,Unknown,1 25678U 99019C   25164.08703669 -.00000018  00000+0  91516-3 0  9997,2 25678  51.9991  37.8809 0006823  36.3259 115.6515 11.90252431170837,11.90252431,0.0006823,LEO
25679,GLOBALSTAR M042,1999,117.83,-1.0,-,52.0,Inactive,0,LEO,Kazakhstan,Globalstar,Unknown,Unknown,Unknown,1 25679U 99019D   25164.48965624 -.00000072  00000+0  18680-3 0  9994,2 25679  52.0027  61.3916 0002621 305.0021 227.1600 12.22083478184801,12.22083478,0.0002621,LEO
25770,GLOBALSTAR M025,1999,128.28,-1.0,-,51.98,Inactive,0,MEO,USA,Globalstar,Unknown,Unknown,Unknown,1 25770U 99031A   25164.28655963 -.00000068  00000+0 -10738-4 0  9993,2 25770  51.9775 168.3076 0001494 154.5898 218.7153 11.22558738481277,11.22558738,0.0001494,MEO
25771,GLOBALSTAR M049,1999,129.48,-1.0,-,51.98,Inactive,0,MEO,USA,Globalstar,Unknown,Unknown,Unknown,1 25771U 99031B   25164.21437054 -.00000088  00000+0 -79894-3 0  9995,2 25771  51.9841 203.0404 0002558 354.2053   5.8713 11.12115502116985,11.12115502,0.0002558,MEO
25772,GLOBALSTAR M047,1999,127.22,-1.0,-,51.98,Inactive,0,LEO,USA,Globalstar,Unknown,Unknown,Unknown,1 25772U 99031C   25164.26377931 -.00000063  00000+0  19179-3 0  9990,2 25772  51.9802 200.2720 0016813 255.6804 104.2135 11.31928691470662,11.31928691,0.0016813,LEO
25773,GLOBALSTAR M052,1999,129.14,-1.0,-,51.99,Inactive,0,MEO,USA,Globalstar,Unknown,Unknown,Unknown,1 25773U 99031D   25164.55639200 -.00000088  00000+0 -75971-3 0  9993,2 25773  51.9883 310.9894 0003130 157.8350 279.4036 11.15059905478107,11.15059905,0.000313,MEO
